COMMENT,ORIGINATOR,NORAD_CAT_ID,OBJECT_NAME,OBJECT_TYPE,CLASSIFICATION_TYPE,INTLDES,EPOCH,EPOCH_MICROSECONDS,MEAN_MOTION,ECCENTRICITY,INCLINATION,RA_OF_ASC_NODE,ARG_OF_PERICENTER,MEAN_ANOMALY,EPHEMERIS_TYPE,ELEMENT_SET_NO,REV_AT_EPOCH,BSTAR,MEAN_MOTION_DOT,MEAN_MOTION_DDOT,FILE,TLE_LINE0,TLE_LINE1,TLE_LINE2,OBJECT_ID,OBJECT_NUMBER,SEMIMAJOR_AXIS,PERIOD,APOGEE,PERIGEE,DECAYED,date
GENERATED VIA SPACETRACK.ORG API,18 SPCS,52183,SPACEBEE-133,PAYLOAD,U,22033AC,2023/2/4 4:23,537728,15.31737948,0.0007427,97.3631,118.5198,282.8293,77.2118,0,999,4701,0.0011386,0.00034963,0,3771952,0 SPACEBEE-133,1 52183U 22033AC  23035.18317752  .00034963  00000-0  11386-2 0  9992,2 52183  97.3631 118.5198 0007427 282.8293  77.2118 15.31737948 47013,2022-033AC,52183,6848.764,94.011,475.715,465.542,1,2023/3/11
GENERATED VIA SPACETRACK.ORG API,18 SPCS,52183,SPACEBEE-133,PAYLOAD,U,22033AC,2023/2/4 18:30,516576,15.31778071,0.0007382,97.3632,119.1036,280.329,79.7119,0,999,4710,0.0010611,0.00032608,0,3772514,0 SPACEBEE-133,1 52183U 22033AC  23035.77111709  .00032608  00000-0  10611-2 0  9995,2 52183  97.3632 119.1036 0007382 280.3290  79.7119 15.31778071 47102,2022-033AC,52183,6848.644,94.008,475.565,465.454,1,2023/3/12
GENERATED VIA SPACETRACK.ORG API,18 SPCS,52183,SPACEBEE-133,PAYLOAD,U,22033AC,2023/2/5 3:54,101120,15.31802288,0.0007382,97.3628,119.4934,278.336,81.7045,0,999,4716,0.00096822,0.00029759,0,3773728,0 SPACEBEE-133,1 52183U 22033AC  23036.16306830  .00029759  00000-0  96822-3 0  9992,2 52183  97.3628 119.4934 0007382 278.3360  81.7045 15.31802288 47167,2022-033AC,52183,6848.572,94.007,475.493,465.381,1,2023/3/13
GENERATED VIA SPACETRACK.ORG API,18 SPCS,52183,SPACEBEE-133,PAYLOAD,U,22033AC,2023/2/5 18:01,946752,15.31840919,0.0007336,97.3627,120.0777,275.8893,84.1513,0,999,4724,0.00096341,0.00029645,0,3774092,0 SPACEBEE-133,1 52183U 22033AC  23036.75098318  .00029645  00000-0  96341-3 0  9996,2 52183  97.3627 120.0777 0007336 275.8893  84.1513 15.31840919 47240,2022-033AC,52183,6848.457,94.005,475.346,465.298,1,2023/3/14
GENERATED VIA SPACETRACK.ORG API,18 SPCS,52183,SPACEBEE-133,PAYLOAD,U,22033AC,2023/2/5 18:01,946752,15.31840919,0.0007336,97.3627,120.0777,275.8893,84.1513,0,999,4725,0.00096341,0.00029645,0,3774172,0 SPACEBEE-133,1 52183U 22033AC  23036.75098318  .00029645  00000-0  96341-3 0  9996,2 52183  97.3627 120.0777 0007336 275.8893  84.1513 15.31840919 47251,2022-033AC,52183,6848.457,94.005,475.346,465.298,1,2023/3/15
GENERATED VIA SPACETRACK.ORG API,18 SPCS,52183,SPACEBEE-133,PAYLOAD,U,22033AC,2023/2/6 11:16,921984,15.31896528,0.0007349,97.3621,120.7916,272.9658,87.0742,0,999,4735,0.001256,0.00038786,0,3775132,0 SPACEBEE-133,1 52183U 22033AC  23037.46952456  .00038786  00000-0  12560-2 0  9993,2 52183  97.3621 120.7916 0007349 272.9658  87.0742 15.31896528 47352,2022-033AC,52183,6848.291,94.001,475.189,465.123,1,2023/3/16
GENERATED VIA SPACETRACK.ORG API,18 SPCS,52183,SPACEBEE-133,PAYLOAD,U,22033AC,2023/2/6 11:16,921984,15.31896528,0.0007349,97.3621,120.7916,272.9658,87.0742,0,999,4736,0.001256,0.00038786,0,3775254,0 SPACEBEE-133,1 52183U 22033AC  23037.46952456  .00038786  00000-0  12560-2 0  9993,2 52183  97.3621 120.7916 0007349 272.9658  87.0742 15.31896528 47363,2022-033AC,52183,6848.291,94.001,475.189,465.123,1,2023/3/17
GENERATED VIA SPACETRACK.ORG API,18 SPCS,52183,SPACEBEE-133,PAYLOAD,U,22033AC,2023/2/6 19:06,212096,15.31925189,0.0007373,97.3619,121.1161,271.6322,88.4075,0,999,4741,0.0013358,0.00041305,0,3776034,0 SPACEBEE-133,1 52183U 22033AC  23037.79612514  .00041305  00000-0  13358-2 0  9994,2 52183  97.3619 121.1161 0007373 271.6322  88.4075 15.31925189 47414,2022-033AC,52183,6848.206,93.999,475.12,465.022,1,2023/3/18
GENERATED VIA SPACETRACK.ORG API,18 SPCS,52183,SPACEBEE-133,PAYLOAD,U,22033AC,2023/2/7 4:30,437408,15.31964006,0.0007415,97.3619,121.5054,270.3809,89.6583,0,999,4746,0.0015331,0.00047514,0,3777133,0 SPACEBEE-133,1 52183U 22033AC  23038.18803747  .00047514  00000-0  15331-2 0  9999,2 52183  97.3619 121.5054 0007415 270.3809  89.6583 15.31964006 47465,2022-033AC,52183,6848.09,93.997,475.033,464.877,1,2023/3/19
GENERATED VIA SPACETRACK.ORG API,18 SPCS,52183,SPACEBEE-133,PAYLOAD,U,22033AC,2023/2/7 4:30,437408,15.31964006,0.0007415,97.3619,121.5054,270.3809,89.6583,0,999,4747,0.0015331,0.00047514,0,3777208,0 SPACEBEE-133,1 52183U 22033AC  23038.18803747  .00047514  00000-0  15331-2 0  9999,2 52183  97.3619 121.5054 0007415 270.3809  89.6583 15.31964006 47476,2022-033AC,52183,6848.09,93.997,475.033,464.877,1,2023/3/20
GENERATED VIA SPACETRACK.ORG API,18 SPCS,52183,SPACEBEE-133,PAYLOAD,U,22033AC,2023/2/7 18:37,650624,15.32023416,0.00074,97.3618,122.0896,268.2809,91.7585,0,999,4756,0.0015981,0.00049637,0,3777976,0 SPACEBEE-133,1 52183U 22033AC  23038.77588716  .00049637  00000-0  15981-2 0  9999,2 52183  97.3618 122.0896 0007400 268.2809  91.7585 15.32023416 47563,2022-033AC,52183,6847.913,93.993,474.846,464.711,1,2023/3/21
GENERATED VIA SPACETRACK.ORG API,18 SPCS,52183,SPACEBEE-133,PAYLOAD,U,22033AC,2023/2/8 5:35,639040,15.32074038,0.0007423,97.3615,122.544,266.4294,93.6099,0,999,4762,0.0016251,0.00050564,0,3778512,0 SPACEBEE-133,1 52183U 22033AC  23039.23308610  .00050564  00000-0  16251-2 0  9996,2 52183  97.3615 122.5440 0007423 266.4294  93.6099 15.32074038 47627,2022-033AC,52183,6847.762,93.99,474.71,464.544,1,2023/3/22
GENERATED VIA SPACETRACK.ORG API,18 SPCS,52183,SPACEBEE-133,PAYLOAD,U,22033AC,2023/2/8 5:35,639040,15.32074038,0.0007423,97.3615,122.544,266.4294,93.6099,0,999,4763,0.0016251,0.00050564,0,3780324,0 SPACEBEE-133,1 52183U 22033AC  23039.23308610  .00050564  00000-0  16251-2 0  9996,2 52183  97.3615 122.5440 0007423 266.4294  93.6099 15.32074038 47638,2022-033AC,52183,6847.762,93.99,474.71,464.544,1,2023/3/23
GENERATED VIA SPACETRACK.ORG API,18 SPCS,52183,SPACEBEE-133,PAYLOAD,U,22033AC,2023/2/8 18:08,230368,15.32134809,0.0007388,97.3614,123.0634,264.3197,95.7203,0,999,4771,0.001785,0.00055689,0,3780893,0 SPACEBEE-133,1 52183U 22033AC  23039.75558137  .00055689  00000-0  17850-2 0  9993,2 52183  97.3614 123.0634 0007388 264.3197  95.7203 15.32134809 47719,2022-033AC,52183,6847.581,93.987,474.505,464.387,1,2023/3/24
GENERATED VIA SPACETRACK.ORG API,18 SPCS,52183,SPACEBEE-133,PAYLOAD,U,22033AC,2023/2/9 5:06,419424,15.32189083,0.0007396,97.3609,123.5176,262.1204,97.9199,0,999,4777,0.0017054,0.00053275,0,3781954,0 SPACEBEE-133,1 52183U 22033AC  23040.21274791  .00053275  00000-0  17054-2 0  9992,2 52183  97.3609 123.5176 0007396 262.1204  97.9199 15.32189083 47771,2022-033AC,52183,6847.419,93.983,474.349,464.22,1,2023/3/25
GENERATED VIA SPACETRACK.ORG API,18 SPCS,52183,SPACEBEE-133,PAYLOAD,U,22033AC,2023/2/9 11:22,741536,15.32216998,0.0007389,97.3607,123.7777,261.5339,98.5065,0,999,4782,0.0018032,0.00056407,0,3782313,0 SPACEBEE-133,1 52183U 22033AC  23040.47397849  .00056407  00000-0  18032-2 0  9997,2 52183  97.3607 123.7777 0007389 261.5339  98.5065 15.32216998 47823,2022-033AC,52183,6847.336,93.981,474.261,464.142,1,2023/3/26
GENERATED VIA SPACETRACK.ORG API,18 SPCS,52183,SPACEBEE-133,PAYLOAD,U,22033AC,2023/2/9 19:12,97696,15.32253936,0.0007455,97.3605,124.1022,260.7702,99.2697,0,999,4787,0.0018297,0.00057311,0,3783241,0 SPACEBEE-133,1 52183U 22033AC  23040.80051039  .00057311  00000-0  18297-2 0  9990,2 52183  97.3605 124.1022 0007455 260.7702  99.2697 15.32253936 47875,2022-033AC,52183,6847.226,93.979,474.196,463.987,1,2023/3/27
GENERATED VIA SPACETRACK.ORG API,18 SPCS,52183,SPACEBEE-133,PAYLOAD,U,22033AC,2023/2/10 4:36,923712,15.32308757,0.0007491,97.3605,124.4915,259.0188,101.0212,0,999,4792,0.0022392,0.00070396,0,3784622,0 SPACEBEE-133,1 52183U 22033AC  23041.19233708  .00070396  00000-0  22392-2 0  9997,2 52183  97.3605 124.4915 0007491 259.0188 101.0212 15.32308757 47921,2022-033AC,52183,6847.063,93.976,474.057,463.799,1,2023/3/28
GENERATED VIA SPACETRACK.ORG API,18 SPCS,52183,SPACEBEE-133,PAYLOAD,U,22033AC,2023/2/10 4:36,923712,15.32308757,0.0007491,97.3605,124.4915,259.0188,101.0212,0,999,4793,0.0022392,0.00070396,0,3785071,0 SPACEBEE-133,1 52183U 22033AC  23041.19233708  .00070396  00000-0  22392-2 0  9997,2 52183  97.3605 124.4915 0007491 259.0188 101.0212 15.32308757 47932,2022-033AC,52183,6847.063,93.976,474.057,463.799,1,2023/3/29
GENERATED VIA SPACETRACK.ORG API,18 SPCS,52183,SPACEBEE-133,PAYLOAD,U,22033AC,2023/2/10 23:25,311552,15.32403535,0.0007474,97.3602,125.2706,256.4671,103.5738,0,999,4804,0.0019064,0.00060018,0,3785404,0 SPACEBEE-133,1 52183U 22033AC  23041.97595268  .00060018  00000-0  19064-2 0  9997,2 52183  97.3602 125.2706 0007474 256.4671 103.5738 15.32403535 48048,2022-033AC,52183,6846.781,93.97,473.763,463.528,1,2023/3/30
GENERATED VIA SPACETRACK.ORG API,18 SPCS,52183,SPACEBEE-133,PAYLOAD,U,22033AC,2023/2/10 23:25,311552,15.32403535,0.0007474,97.3602,125.2706,256.4671,103.5738,0,999,4805,0.0019064,0.00060018,0,3786144,0 SPACEBEE-133,1 52183U 22033AC  23041.97595268  .00060018  00000-0  19064-2 0  9997,2 52183  97.3602 125.2706 0007474 256.4671 103.5738 15.32403535 48059,2022-033AC,52183,6846.781,93.97,473.763,463.528,1,2023/3/31
GENERATED VIA SPACETRACK.ORG API,18 SPCS,52183,SPACEBEE-133,PAYLOAD,U,22033AC,2023/2/11 22:55,458048,15.32530014,0.0007503,97.36,126.2449,252.5796,107.4626,0,999,4819,0.0018559,0.00058647,0,3787310,0 SPACEBEE-133,1 52183U 22033AC  23042.95539882  .00058647  00000-0  18559-2 0  9999,2 52183  97.3600 126.2449 0007503 252.5796 107.4626 15.32530014 48197,2022-033AC,52183,6846.404,93.962,473.406,463.132,1,2023/4/1
GENERATED VIA SPACETRACK.ORG API,18 SPCS,52183,SPACEBEE-133,PAYLOAD,U,22033AC,2023/2/12 11:27,556288,15.3259312,0.0007455,97.3599,126.7648,250.8096,109.234,0,999,4828,0.0018625,0.00058974,0,3787692,0 SPACEBEE-133,1 52183U 22033AC  23043.47773792  .00058974  00000-0  18625-2 0  9994,2 52183  97.3599 126.7648 0007455 250.8096 109.2340 15.32593120 48280,2022-033AC,52183,6846.216,93.958,473.185,462.977,1,2023/4/2
